{"routes":[{"name":"Short Route","location":"1","distance":"55.00","traveled":"6.80"},{"name":"Scenic Route","location":"2","distance":"130.00","traveled":"1.84"},{"name":"Interstate","location":"3","distance":"200.00","traveled":"6.31"}],"distance":"26.59","tanksize":"16","carlogs":[{"date":"11.23.2016 20:49:32","durration":"00 min:03 sec","maxspeed":"0.0","avgspeed":"0.0","user":"robert"},{"date":"11.23.2016 20:52:51","durration":"06 min:13 sec","maxspeed":"60.5","avgspeed":"53.6","user":"robert"},{"date":"11.23.2016 21:10:55","durration":"00 min:31 sec","maxspeed":"0.0","avgspeed":"0.0","user":"robert"},{"date":"11.23.2016 21:13:17","durration":"01 min:24 sec","maxspeed":"0.0","avgspeed":"0.0","user":"robert"},{"date":"11.23.2016 21:35:04","durration":"00 min:34 sec","maxspeed":"50.5","avgspeed":"19.8","user":"robert"},{"date":"11.23.2016 22:12:04","durration":"00 min:08 sec","maxspeed":"0.0","avgspeed":"0.0","user":"robert"},{"date":"11.23.2016 22:15:53","durration":"04 min:02 sec","maxspeed":"0.0","avgspeed":"0.0","user":"robert"},{"date":"11.23.2016 22:21:37","durration":"00 min:05 sec","maxspeed":"0.0","avgspeed":"0.0","user":"robert"},{"date":"11.24.2016 15:02:28","durration":"00 min:37 sec","maxspeed":"6.0","avgspeed":"0.5","user":"robert"},{"date":"11.24.2016 15:09:50","durration":"00 min:02 sec","maxspeed":"0.0","avgspeed":"0.0","user":"robert"},{"date":"11.24.2016 15:14:31","durration":"00 min:01 sec","maxspeed":"0.0","avgspeed":"0.0","user":"robert"},{"date":"11.24.2016 15:28:43","durration":"00 min:09 sec","maxspeed":"0.0","avgspeed":"0.0","user":"robert"},{"date":"11.24.2016 15:28:57","durration":"00 min:00 sec","maxspeed":"0.0","avgspeed":"0.0","user":"robert"},{"date":"11.24.2016 15:29:02","durration":"00 min:01 sec","maxspeed":"0.0","avgspeed":"0.0","user":"robert"},{"date":"11.24.2016 15:39:35","durration":"00 min:02 sec","maxspeed":"0.0","avgspeed":"0.0","user":"robert"},{"date":"11.24.2016 17:03:58","durration":"00 min:23 sec","maxspeed":"0.0","avgspeed":"0.0","user":"robert"},{"date":"11.24.2016 17:37:54","durration":"00 min:40 sec","maxspeed":"0.0","avgspeed":"0.0","user":"robert"},{"date":"11.24.2016 17:39:54","durration":"00 min:16 sec","maxspeed":"0.0","avgspeed":"0.0","user":"robert"},{"date":"11.24.2016 17:40:15","durration":"00 min:38 sec","maxspeed":"0.0","avgspeed":"0.0","user":"robert"},{"date":"11.24.2016 17:42:13","durration":"00 min:17 sec","maxspeed":"0.0","avgspeed":"0.0","user":"robert"},{"date":"11.24.2016 17:42:36","durration":"00 min:06 sec","maxspeed":"0.0","avgspeed":"0.0","user":"robert"},{"date":"11.24.2016 17:46:43","durration":"00 min:25 sec","maxspeed":"0.0","avgspeed":"0.0","user":"robert"},{"date":"11.24.2016 17:47:13","durration":"00 min:02 sec","maxspeed":"0.0","avgspeed":"0.0","user":"robert"},{"date":"11.24.2016 17:47:20","durration":"00 min:56 sec","maxspeed":"0.0","avgspeed":"0.0","user":"robert"},{"date":"11.24.2016 17:51:46","durration":"01 min:31 sec","maxspeed":"0.0","avgspeed":"0.0","user":"robert"},{"date":"11.24.2016 17:55:18","durration":"00 min:11 sec","maxspeed":"0.0","avgspeed":"0.0","user":"robert"},{"date":"11.24.2016 18:08:45","durration":"00 min:52 sec","maxspeed":"0.0","avgspeed":"0.0","user":"robert"},{"date":"11.24.2016 18:15:23","durration":"00 min:09 sec","maxspeed":"0.0","avgspeed":"0.0","user":"robert"},{"user":"robert","maxspeed":"0.0","avgspeed":"0.0","date":"11.24.2016 18:16:13","durration":"00 min:10 sec"}],"radiologs":[{"date":"11.23.2016 20:53:19","durration":"05 min:15 sec","user":"robert"},{"date":"11.24.2016 17:37:55","durration":"00 min:02 sec","user":"robert"},{"date":"11.24.2016 17:46:47","durration":"00 min:00 sec","user":"robert"},{"date":"11.24.2016 17:46:48","durration":"00 min:00 sec","user":"robert"},{"date":"11.24.2016 17:47:03","durration":"00 min:02 sec","user":"robert"},{"date":"11.24.2016 17:55:20","durration":"00 min:01 sec","user":"robert"}],"fuellevel":"14.67"}